,PlaceName,Settlement,Region,Country,helper,latitude,longitude
0,Albi,Albi,Tarn,France,Albi Tarn France,43.9277552,2.147899
1,Moulins,Moulins,Allier,France,Moulins Allier France,46.5660526,3.3331703
2,Saint-Flour,Saint-Flour,Cantal,France,Saint-Flour Cantal France,45.0334949,3.0931009
3,Tutbury,Tutbury,Staffordshire,England,Tutbury Staffordshire England,52.8492143,-1.7025715339152243
4,Rome,Rome,Lazio,Italie,Rome Lazio Italie,41.8933203,12.4829321
5,Autun,Autun,Saône-et-Loire,France,Autun Saône-et-Loire France,46.9510313,4.2989478
6,Dijon,Dijon,Côte-d'Or,France,Dijon Côte-d'Or France,47.3215806,5.0414701
7,Souvigny,Souvigny,Allier,France,Souvigny Allier France,46.5345119,3.1947101
8,Riom,Riom,Puy-de-Dôme,France,Riom Puy-de-Dôme France,45.893068,3.1136667
9,Montbrison,Montbrison,Loire,France,Montbrison Loire France,45.6072875,4.0627318
10,Lyon,Lyon,Rhône,France,Lyon Rhône France,45.7578137,4.8320114
11,Saint-Bonnet-près-Riom,Saint-Bonnet-près-Riom,Puy-de-Dôme,France,Saint-Bonnet-près-Riom Puy-de-Dôme France,45.9306,3.1139
12,Gannat,Gannat,Allier,France,Gannat Allier France,46.0996068,3.1995251
13,La Charité-sur-Loire,La Charité-sur-Loire,Nièvre,France,La Charité-sur-Loire Nièvre France,47.1793255,3.0185784
14,Villefranche-sur-Saône,Villefranche-sur-Saône,Rhône,France,Villefranche-sur-Saône Rhône France,45.9864749,4.726611
15,Chinon,Chinon,Indre-et-Loire,France,Chinon Indre-et-Loire France,47.1667182,0.2402095
16,Vichy,Vichy,Allier,France,Vichy Allier France,46.1239268,3.4203712
17,Bourbon-l'Archambault,Bourbon-l'Archambault,Allier,France,Bourbon-l'Archambault Allier France,46.5857669,3.05804
18,Montluçon,Montluçon,Allier,France,Montluçon Allier France,46.3399276,2.6067229
19,Beaujeu,Beaujeu,Rhône,France,Beaujeu Rhône France,46.148552,4.5966558
20,Hérisson,Hérisson,Allier,France,Hérisson Allier France,46.5082,2.71241
21,Saint-Pourçain-sur-Sioule,Saint-Pourçain-sur-Sioule,Allier,France,Saint-Pourçain-sur-Sioule Allier France,46.3074423,3.2899107
22,Vinzelles (La),Vinzelles (La),Puy-de-Dôme,France,Vinzelles (La) Puy-de-Dôme France,45.9258481,3.3969277
23,Calvinet,Calvinet,Cantal,France,Calvinet Cantal France,44.7203485,2.3624573672377416
24,Villemur,Villemur,Hautes-Pyrénées,France,Villemur Hautes-Pyrénées France,43.2552943,0.5517926
25,Issoire,Issoire,Puy-de-Dôme,France,Issoire Puy-de-Dôme France,45.5432973,3.2502213
26,Chantelle,Chantelle,Allier,France,Chantelle Allier France,46.2385636,3.1517793
27,Trévoux,Trévoux,Ain,France,Trévoux Ain France,45.9410123,4.7733198
28,Bourg-en-Bresse,Bourg-en-Bresse,Ain,France,Bourg-en-Bresse Ain France,46.2051192,5.2250324
29,Mâcon,Mâcon,Saône-et-Loire,France,Mâcon Saône-et-Loire France,46.3036683,4.8322266
30,Cluny,Cluny,Saône-et-Loire,France,Cluny Saône-et-Loire France,46.4339138,4.6575708
31,Marcigny,Marcigny,Saône-et-Loire,France,Marcigny Saône-et-Loire France,46.2747868,4.0398531
32,Tournus,Tournus,Saône-et-Loire,France,Tournus Saône-et-Loire France,46.5617373,4.9122425
33,Saint-Gengoux-le-National,Saint-Gengoux-le-National,Saône-et-Loire,France,Saint-Gengoux-le-National Saône-et-Loire France,46.6135488,4.6625792
34,Bois-Sainte-Marie,Bois-Sainte-Marie,Saône-et-Loire,France,Bois-Sainte-Marie Saône-et-Loire France,46.3297594,4.3547812
35,Chalon-sur-Saône,Chalon-sur-Saône,Saône-et-Loire,France,Chalon-sur-Saône Saône-et-Loire France,46.7888997,4.8529605
36,Cusset,Cusset,Allier,France,Cusset Allier France,46.1324239,3.4602736
37,Charlieu,Charlieu,Loire,France,Charlieu Loire France,46.1588067,4.1714892
38,Châteauneuf,Châteauneuf,Loire,France,Châteauneuf Loire France,46.2127984,4.2545324
39,Ambierle,Ambierle,Loire,France,Ambierle Loire France,46.1037566,3.8962376
40,Saint-Pierre-le-Moûtier,Saint-Pierre-le-Moûtier,Nièvre,France,Saint-Pierre-le-Moûtier Nièvre France,46.7905584,3.1180359
41,Sancoins,Sancoins,Cher,France,Sancoins Cher France,46.8308788,2.9201075
42,Cosne-Cours-sur-Loire,Cosne-Cours-sur-Loire,Nièvre,France,Cosne-Cours-sur-Loire Nièvre France,47.4115613,2.9273937
43,Néronde,Néronde,Loire,France,Néronde Loire France,45.8387332,4.2365301
44,Dampierre,Dampierre,Aube,France,Dampierre Aube France,48.5503915,4.367179
45,Ravel,Ravel,Puy-de-Dôme,France,Ravel Puy-de-Dôme France,45.7779084,3.3963733
46,Montcenis,Montcenis,Saône-et-Loire,France,Montcenis Saône-et-Loire France,46.7904888,4.3884346
47,Moulins-Engilbert,Moulins-Engilbert,Nièvre,France,Moulins-Engilbert Nièvre France,46.9871868,3.811486
48,Châtillon-sur-Chalaronne,Châtillon-sur-Chalaronne,Ain,France,Châtillon-sur-Chalaronne Ain France,46.1191397,4.9580413
49,Pont-de-Veyle,Pont-de-Veyle,Ain,France,Pont-de-Veyle Ain France,46.2635,4.88836
50,Saint-Trivier-sur-Moignans,Saint-Trivier-sur-Moignans,Ain,France,Saint-Trivier-sur-Moignans Ain France,46.071982,4.8979906
51,Billy,Billy,Allier,France,Billy Allier France,46.2362521,3.4300974
52,Varennes-sur-Allier,Varennes-sur-Allier,Allier,France,Varennes-sur-Allier Allier France,46.3127469,3.4033756
53,Chavroches,Chavroches,Allier,France,Chavroches Allier France,46.3543978,3.5867202
54,Saligny-sur-Roudon,Saligny-sur-Roudon,Allier,France,Saligny-sur-Roudon Allier France,46.4688035,3.7524304
55,Perreux,Perreux,Loire,France,Perreux Loire France,46.0392182,4.126032
56,Lay,Lay,Loire,France,Lay Loire France,45.9562725,4.2189216
57,Montaigu-le-Blin,Montaigu-le-Blin,Allier,France,Montaigu-le-Blin Allier France,46.2944188,3.5110484
58,Thiers,Thiers,Puy-de-Dôme,France,Thiers Puy-de-Dôme France,45.855795,3.5489707
59,Vienne,Vienne,Isère,France,Vienne Isère France,45.5195601,4.8727744
60,Ribadeo,Ribadeo,Galice,Espagne,Ribadeo Galice Espagne,43.5361589,-7.0436775
61,Chasteaulbelin,Salins-les-Bains,Jura,France,Salins-les-Bains Jura France,46.9404794,5.8786339
62,La Chaussiere,Vieure,Allier,France,Vieure Allier France,46.5014402,2.8755012
63,Blancs-Fossés,Couleuvre,Allier,France,Couleuvre Allier France,46.6727,2.90838
64,Chazeuil,Varennes-sur-Allier,Allier,France,Varennes-sur-Allier Allier France,46.3127469,3.4033756
65,Sury-le-Bois,Valeille,Loire,France,Valeille Loire France,45.7079,4.30432
66,Rosemont,Luthenay-Uxeloup,Nièvre,France,Luthenay-Uxeloup Nièvre France,46.8505023,3.2602027
67,École,Le Mayet d’École,Allier,France,Le Mayet d’École Allier France,46.1684483,3.2410883
68,Roche de Solutré,Solutré-Pouilly,Saône-et-Loire,France,Solutré-Pouilly Saône-et-Loire France,46.2968704,4.7246736
69,Noyers-sur-Serein,Noyers,Yonne,France,Noyers Yonne France,47.6957055,3.9955476
70,Saint-Cosme,Chalon-sur-Saône,Saône-et-Loire,France,Chalon-sur-Saône Saône-et-Loire France,46.7888997,4.8529605
71,Chaugy,Bessay-sur-Allier,Allier,France,Bessay-sur-Allier Allier France,46.442066,3.3631418
72,Féchal,Apchat,Puy-de-Dôme,France,Apchat Puy-de-Dôme France,45.3887558,3.1451084
73,La Ferté-Chauderon,Chantenay-Saint-Imbert,Nièvre,France,Chantenay-Saint-Imbert Nièvre France,46.7330166,3.1831744
74,Château de Montgilbert,Ferrières-sur-Sichon,Allier,France,Ferrières-sur-Sichon Allier France,46.0253667,3.6489835
